CCSDS_OMM_VERS,COMMENT,CREATION_DATE,ORIGINATOR,OBJECT_NAME,OBJECT_ID,CENTER_NAME,REF_FRAME,TIME_SYSTEM,MEAN_ELEMENT_THEORY,EPOCH,MEAN_MOTION,ECCENTRICITY,INCLINATION,RA_OF_ASC_NODE,ARG_OF_PERICENTER,MEAN_ANOMALY,EPHEMERIS_TYPE,CLASSIFICATION_TYPE,NORAD_CAT_ID,ELEMENT_SET_NO,REV_AT_EPOCH,BSTAR,MEAN_MOTION_DOT,MEAN_MOTION_DDOT,SEMIMAJOR_AXIS,PERIOD,APOAPSIS,PERIAPSIS,OBJECT_TYPE,RCS_SIZE,COUNTRY_CODE,LAUNCH_DATE,SITE,DECAY_DATE,FILE,GP_ID,TLE_LINE0,TLE_LINE1,TLE_LINE2
3.0,GENERATED VIA SPACE-TRACK.ORG API,2004-08-15T23:39:47,18 SPCS,COSMOS 814,1976-034A,EARTH,TEME,UTC,SGP4,1976-04-13T17:06:20.729951,15.91543356,0.0271617,65.0687,136.1511,40.6656,321.4395,0,U,8806,999,0,0.0,0.00999999,0.0,6676.104,90.478,479.304,116.635,PAYLOAD,,,,,1976-04-13,33994,9765801,0 COSMOS 814,1 08806U 76034  A 76104.71273993  .00999999 +00000-0 +00000-0 0  9995,2 08806 065.0687 136.1511 0271617 040.6656 321.4395 15.91543356000004
3.0,GENERATED VIA SPACE-TRACK.ORG API,2004-08-16T23:12:32,18 SPCS,SL-4 R/B,1980-064B,EARTH,TEME,UTC,SGP4,1980-07-25T19:14:42.353375,16.25476265,0.0045853,51.587,218.599,90.3388,271.7791,0,U,11906,999,33,4.49e-06,0.0367235,3.708e-07,6582.866,88.589,234.915,174.546,ROCKET BODY,,,,,1980-07-27,34277,11618052,0 SL-4 R/B,1 11906U 80064  B 80207.80187909  .03672350 +03708-5 +04490-4 0  9994,2 11906 051.5870 218.5990 0045853 090.3388 271.7791 16.25476265000339
3.0,GENERATED VIA SPACE-TRACK.ORG API,2004-05-28T19:22:11,18 SPCS,PSLV DEB,2001-049AE,EARTH,TEME,UTC,SGP4,2002-12-21T01:19:35.177663,16.36239257,0.0010384,98.7372,140.2366,268.063,94.5253,0,U,27086,999,5536,0.0017743,0.14621068,3.3829e-06,6553.966,88.006,182.637,169.026,DEBRIS,MEDIUM,IND,2001-10-22,SRI,2002-12-21,7088,4338391,0 PSLV DEB,1 27086U 01049AE  02355.05526826 +.14621068 +33829-5 +17743-2 0  9998,2 27086 098.7372 140.2366 0010384 268.0630 094.5253 16.36239257055365
3.0,GENERATED VIA SPACE-TRACK.ORG API,2006-09-27T14:28:01,18 SPCS,COSMOS 41 DEB,1964-049V,EARTH,TEME,UTC,SGP4,2006-09-25T22:22:09.787007,15.15806953,0.0581701,63.5341,213.6004,32.4731,331.0167,0,U,29007,999,2779,0.024554,0.99999999,1.3658e-05,6896.671,94.998,919.716,117.356,DEBRIS,SMALL,CIS,1964-08-22,TTMTR,2006-09-25,313239,58906718,0 COSMOS 41 DEB,1 29007U 64049V   06268.93205772  .99999999  13658-4  24554-1 0  9998,2 29007 063.5341 213.6004 0581701 032.4731 331.0167 15.15806953 27799
3.0,GENERATED VIA SPACE-TRACK.ORG API,2005-04-25T10:07:34,18 SPCS,SL-13 DEB,1973-017J,EARTH,TEME,UTC,SGP4,1973-04-04T11:38:09.318911,15.53780892,0.0255746,51.556,328.921,84.3491,278.6558,0,U,6406,999,18,0.0,0.01173117,0.00085286,6783.84,92.677,579.199,232.211,DEBRIS,,,,,1973-04-26,129569,41997676,0 SL-13 DEB,1 06406U 73017  J 73094.48483008  .01173117 +85286-3 +00000-0 0  9995,2 06406 051.5560 328.9210 0255746 084.3491 278.6558 15.53780892000181
3.0,GENERATED VIA SPACE-TRACK.ORG API,2025-01-28T14:16:18,18 SPCS,CZ-4 DEB,1999-057FE,EARTH,TEME,UTC,SGP4,2025-01-27T07:36:57.388896,16.06623702,0.0015391,98.6415,162.6364,316.2037,43.8019,0,U,26268,999,33573,0.0051267,0.02994511,0.017135,6634.259,89.629,266.334,245.913,DEBRIS,SMALL,PRC,1999-10-14,TSC,2025-01-31,4624017,279309145,0 CZ-4 DEB,1 26268U 99057FE  25027.31733089  .02994511  17135-1  51267-2 0  9996,2 26268  98.6415 162.6364 0015391 316.2037  43.8019 16.06623702335737
3.0,GENERATED VIA SPACE-TRACK.ORG API,2004-08-17T14:42:45,18 SPCS,COSMOS 2032 DEB,1989-057D,EARTH,TEME,UTC,SGP4,1989-08-04T03:58:08.486400,16.38695833,0.0023225,82.3018,82.4883,226.0058,136.5057,0,U,20157,999,237,0.0015853,0.24050927,1.0351e-05,6547.415,87.874,184.486,154.073,DEBRIS,,,,,1989-08-04,34704,17086389,0 COSMOS 2032 DEB,1 20157U 89057  D 89216.16537600  .24050927 +10351-4 +15853-2 0  9995,2 20157 082.3018 082.4883 0023225 226.0058 136.5057 16.38695833002370
3.0,GENERATED VIA SPACE-TRACK.ORG API,2023-01-17T02:22:43,18 SPCS,H-2A DEB,2012-025AF,EARTH,TEME,UTC,SGP4,2023-01-13T17:51:56.767392,15.22193279,0.0020568,98.1903,123.634,312.7957,47.1547,0,U,54723,999,804,0.054577,0.01386647,0.0,6877.363,94.6,513.374,485.083,DEBRIS,SMALL,JPN,2012-05-17,TNSTA,2023-01-27,3750956,223255803,0 H-2A DEB,1 54723U 12025AF  23013.74440703  .01386647  00000-0  54577-1 0  9993,2 54723  98.1903 123.6340 0020568 312.7957  47.1547 15.22193279  8048
3.0,GENERATED VIA SPACE-TRACK.ORG API,2004-08-16T23:15:56,18 SPCS,SL-4 DEB,1982-005C,EARTH,TEME,UTC,SGP4,1982-01-21T11:08:17.155680,16.19416701,0.0065168,72.853,294.4535,93.3839,276.4391,0,U,13038,999,16,0.0014985,0.0428596,8.5743e-06,6599.277,88.92,264.148,178.136,DEBRIS,SMALL,CIS,1982-01-20,PKMTR,1982-01-22,34345,12890729,0 SL-4 DEB,1 13038U 82005  C 82021.46408745  .04285960 +85743-5 +14985-2 0  9996,2 13038 072.8530 294.4535 0065168 093.3839 276.4391 16.19416701000160
3.0,GENERATED VIA SPACE-TRACK.ORG API,2004-08-16T23:24:14,18 SPCS,SL-6 DEB,1985-099D,EARTH,TEME,UTC,SGP4,1986-02-11T06:26:29.361696,16.24559619,0.006021,62.942,23.5445,78.4564,277.5526,0,U,16190,999,1738,0.00070036,0.03163422,3.7268e-05,6585.342,88.639,246.857,167.556,DEBRIS,,,,,1986-02-12,34511,14980625,0 SL-6 DEB,1 16190U 85099D   86042.26839539  .03163422 +37268-4 +70036-3 0  9993,2 16190 062.9420 023.5445 0060210 078.4564 277.5526 16.24559619017389
3.0,GENERATED VIA SPACE-TRACK.ORG API,2022-05-03T22:36:12,18 SPCS,STARLINK-80,2019-029AZ,EARTH,TEME,UTC,SGP4,2022-05-03T18:33:47.809728,16.27325173,0.001076,52.9933,197.4861,338.9386,21.6301,0,U,44282,999,16484,0.003768,0.14007298,1.2185e-05,6577.875,88.489,206.818,192.662,PAYLOAD,LARGE,US,2019-05-24,AFETR,2022-05-04,3427255,202605062,0 STARLINK-80,1 44282U 19029AZ  22123.77347002  .14007298  12185-4  37680-2 0  9999,2 44282  52.9933 197.4861 0010760 338.9386  21.6301 16.27325173164846
3.0,GENERATED VIA SPACE-TRACK.ORG API,2024-09-18T02:24:22,18 SPCS,OBJECT BC,2021-006BC,EARTH,TEME,UTC,SGP4,2024-09-15T13:47:04.913088,16.44366857,0.0012787,97.2779,322.7391,264.5239,95.4605,0,U,47463,999,20287,0.00040898,0.14593163,2.5007e-06,6532.349,87.572,162.567,145.861,UNKNOWN,SMALL,TBD,2021-01-24,AFETR,2024-09-15,4497690,268383378,0 OBJECT BC,1 47463U 21006BC  24259.57436242  .14593163  25007-5  40898-3 0  9991,2 47463  97.2779 322.7391 0012787 264.5239  95.4605 16.44366857202878
3.0,GENERATED VIA SPACE-TRACK.ORG API,2004-08-16T23:15:14,18 SPCS,DELTA 1 DEB,1972-058FE,EARTH,TEME,UTC,SGP4,1981-04-11T00:29:25.787904,14.88845071,0.008184,98.1513,131.804,323.6053,36.004,0,U,8388,999,46159,0.012507,0.00124724,0.0,6979.684,96.719,658.671,544.427,DEBRIS,SMALL,US,1972-07-23,AFWTR,1981-06-25,34331,12069104,0 DELTA 1 DEB,1 08388U 72058 FE 81101.02043736  .00124724 +00000-0 +12507-1 0  9991,2 08388 098.1513 131.8040 0081840 323.6053 036.0040 14.88845071461590
3.0,GENERATED VIA SPACE-TRACK.ORG API,2005-04-22T16:12:26,18 SPCS,SL-4 R/B,1972-099B,EARTH,TEME,UTC,SGP4,1972-12-20T17:24:43.334783,16.34544575,0.002752,65.399,244.3204,49.7765,310.5774,0,U,6312,999,100,0.0,0.02711625,0.011791,6558.496,88.097,198.41,162.312,ROCKET BODY,,,,,1972-12-22,128520,41842840,0 SL-4 R/B,1 06312U 72099  B 72355.72550156  .02711625 +11791-1 +00000-0 0  9996,2 06312 065.3990 244.3204 0027520 049.7765 310.5774 16.34544575001001
3.0,GENERATED VIA SPACE-TRACK.ORG API,2004-08-15T23:39:35,18 SPCS,SL-4 DEB,1975-020C,EARTH,TEME,UTC,SGP4,1975-03-26T14:33:54.406944,16.22193971,0.0031184,81.282,339.6627,347.5162,12.5291,0,U,7707,999,4,0.0,0.002,0.0,6591.742,88.768,234.163,193.052,DEBRIS,,,,,1975-03-29,33990,9517756,0 SL-4 DEB,1 07707U 75020  C 75085.60687971  .00200000 +00000-0 +00000-0 0  9996,2 07707 081.2820 339.6627 0031184 347.5162 012.5291 16.22193971000040
3.0,GENERATED VIA SPACE-TRACK.ORG API,2004-08-17T15:02:33,18 SPCS,N-2 R/B,1983-006B,EARTH,TEME,UTC,SGP4,1996-05-26T20:37:31.558655,16.39759181,0.0037249,28.3681,141.2704,282.2385,77.4547,0,U,13786,999,35713,0.00052393,0.1508038,-7.8564e-06,6544.584,87.817,190.827,142.071,ROCKET BODY,LARGE,JPN,1983-02-04,TNSTA,1996-05-27,35100,22707109,0 N-2 R/B,1 13786U 83006B   96147.85939304  .15080380 -78564-5  52393-3 0  9996,2 13786 028.3681 141.2704 0037249 282.2385 077.4547 16.39759181357132
3.0,GENERATED VIA SPACE-TRACK.ORG API,2021-03-16T23:26:12,18 SPCS,ARIANE 44L R/B,1992-041C,EARTH,TEME,UTC,SGP4,2021-03-12T00:39:53.355168,15.22348507,0.0525676,6.9582,138.9374,208.8988,1.4982,0,U,22032,999,40168,0.0011547,0.10392325,-2.8138e-05,6876.896,94.591,860.263,137.259,ROCKET BODY,LARGE,FR,1992-07-09,FRGUI,2021-03-16,2983738,173509386,0 ARIANE 44L R/B,1 22032U 92041C   21071.02770087  .10392325 -28138-4  11547-2 0  9999,2 22032   6.9582 138.9374 0525676 208.8988   1.4982 15.22348507401680
3.0,GENERATED VIA SPACE-TRACK.ORG API,2014-09-24T16:41:37,18 SPCS,FENGYUN 1C DEB,1999-025DDU,EARTH,TEME,UTC,SGP4,2014-08-12T19:28:05.859552,15.2358525,0.0008874,99.1123,79.8926,41.9252,336.8217,0,U,33635,999,33339,0.01107,0.00274878,0.0,6873.178,94.513,501.142,488.944,DEBRIS,SMALL,PRC,1999-05-10,TSC,2014-10-13,1751750,97076460,0 FENGYUN 1C DEB,1 33635U 99025DDU 14224.81117893  .00274878  00000-0  11070-1 0  9992,2 33635 099.1123 079.8926 0008874 041.9252 336.8217 15.23585250333395
3.0,GENERATED VIA SPACE-TRACK.ORG API,2023-02-28T07:06:13,18 SPCS,STARLINK-1881,2020-088AW,EARTH,TEME,UTC,SGP4,2023-02-28T06:10:47.645760,16.31600608,0.0004628,53.0376,40.2489,157.7188,336.6773,0,U,47166,999,12806,0.0042733,0.23401955,1.2058e-05,6566.379,88.257,191.283,185.205,PAYLOAD,LARGE,US,2020-11-25,AFETR,2023-02-28,3847006,227202235,0 STARLINK-1881,1 47166U 20088AW  23059.25749590  .23401955  12058-4  42733-2 0  9992,2 47166  53.0376  40.2489 0004628 157.7188 336.6773 16.31600608128067
3.0,GENERATED VIA SPACE-TRACK.ORG API,2013-10-03T11:23:56,18 SPCS,COSMOS 2251 DEB,1993-036BMT,EARTH,TEME,UTC,SGP4,2013-08-29T09:03:24.415487,15.59997106,0.0031591,73.8858,260.2911,94.0423,257.1495,0,U,37514,999,23230,0.0031929,0.00272939,0.0,6765.806,92.307,409.045,366.297,DEBRIS,SMALL,CIS,1993-06-16,PKMTR,2013-10-08,1557184,93988274,0 COSMOS 2251 DEB,1 37514U 93036BMT 13241.37736592  .00272939  00000-0  31929-2 0  9992,2 37514 073.8858 260.2911 0031591 094.0423 257.1495 15.59997106232308
